{
    "links": {
        "self": "http://www.neowsapp.com/rest/v1/neo/3345299?api_key=iIulBulltgU6a56xZRHN4H3l9WmuAYTsLGpBGhQ2"
    },
    "id": "3345299",
    "neo_reference_id": "3345299",
    "name": "(2006 SN131)",
    "designation": "2006 SN131",
    "nasa_jpl_url": "http://ssd.jpl.nasa.gov/sbdb.cgi?sstr=3345299",
    "absolute_magnitude_h": 26.3,
    "estimated_diameter": {
        "kilometers": {
            "estimated_diameter_min": 0.0146067964,
            "estimated_diameter_max": 0.0326617897
        },
        "meters": {
            "estimated_diameter_min": 14.6067964271,
            "estimated_diameter_max": 32.6617897446
        },
        "miles": {
            "estimated_diameter_min": 0.0090762397,
            "estimated_diameter_max": 0.020295089
        },
        "feet": {
            "estimated_diameter_min": 47.92256199,
            "estimated_diameter_max": 107.1581062656
        }
    },
    "is_potentially_hazardous_asteroid": false,
    "close_approach_data": [
        {
            "close_approach_date": "2003-07-29",
            "close_approach_date_full": "2003-Jul-29 17:07",
            "epoch_date_close_approach": 1059498420000,
            "relative_velocity": {
                "kilometers_per_second": "20.1081485626",
                "kilometers_per_hour": "72389.3348253917",
                "miles_per_hour": "44979.9175196996"
            },
            "miss_distance": {
                "astronomical": "0.4395266483",
                "lunar": "170.9758661887",
                "kilometers": "65752250.393919121",
                "miles": "40856553.8512050298"
            },
            "orbiting_body": "Earth"
        },
        {
            "close_approach_date": "2006-09-27",
            "close_approach_date_full": "2006-Sep-27 10:13",
            "epoch_date_close_approach": 1159351980000,
            "relative_velocity": {
                "kilometers_per_second": "7.5636226065",
                "kilometers_per_hour": "27229.0413833037",
                "miles_per_hour": "16919.06740842"
            },
            "miss_distance": {
                "astronomical": "0.0158686744",
                "lunar": "6.1729143416",
                "kilometers": "2373919.889963528",
                "miles": "1475085.4190035664"
            },
            "orbiting_body": "Earth"
        },
        {
            "close_approach_date": "2009-11-20",
            "close_approach_date_full": "2009-Nov-20 10:19",
            "epoch_date_close_approach": 1258712340000,
            "relative_velocity": {
                "kilometers_per_second": "21.1679430353",
                "kilometers_per_hour": "76204.594927039",
                "miles_per_hour": "47350.5717756371"
            },
            "miss_distance": {
                "astronomical": "0.4731768297",
                "lunar": "184.0657867533",
                "kilometers": "70786245.856472739",
                "miles": "43984533.5852882382"
            },
            "orbiting_body": "Earth"
        }
    ],
    "orbital_data": {
        "orbit_id": "10",
        "orbit_determination_date": "2017-04-06 09:08:03",
        "first_observation_date": "2006-09-26",
        "last_observation_date": "2006-10-01",
        "data_arc_in_days": 5,
        "observations_used": 23,
        "orbit_uncertainty": "8",
        "minimum_orbit_intersection": ".01527",
        "jupiter_tisserand_invariant": "3.535",
        "epoch_osculation": "2454006.5",
        "eccentricity": ".5207147984659773",
        "semi_major_axis": "2.123770994741818",
        "inclination": "6.092704483047806",
        "ascending_node_longitude": "2.911537344834767",
        "orbital_period": "1130.472376339079",
        "perihelion_distance": "1.017892009226944",
        "perihelion_argument": "1.318737765852721",
        "aphelion_distance": "3.229649980256691",
        "perihelion_time": "2454006.161065619037",
        "mean_anomaly": ".1079339749475504",
        "mean_motion": ".3184509480592738",
        "equinox": "J2000",
        "orbit_class": {
            "orbit_class_type": "AMO",
            "orbit_class_description": "Near-Earth asteroid orbits similar to that of 1221 Amor",
            "orbit_class_range": "1.017 AU < q (perihelion) < 1.3 AU"
        }
    },
    "is_sentry_object": false
}